LANDSAT 9               
1 49260U 21088A   23275.42448491  .00000815  00000+0  19106-3 0  9998
2 49260  98.2201 343.9842 0001212  82.3548 277.7788 14.57096127107000
